{"type": "FeatureCollection", "features": [ {"type": "Feature", "properties": {"norad_id": 43108, "name": "BEIDOU-3 M8 (C28)", "group": "beidou", "lat": 50.89191161986553, "lon": 10.243235395822104, "alt_km": 21534.63927161171, "timestamp": "2025-12-09T20:37:09.552184+00:00", "meta": {"OBJECT_NAME": "BEIDOU-3 M8 (C28)", "OBJECT_ID": "2018-003B", "EPOCH": "2025-12-09T05:08:23.746272", "MEAN_MOTION": 1.86230654, "ECCENTRICITY": 0.00048225, "INCLINATION": 54.4927, "RA_OF_ASC_NODE": 308.9205, "ARG_OF_PERICENTER": 273.4107, "MEAN_ANOMALY": 86.5234, "EPHEMERIS_TYPE": 0, "CLASSIFICATION_TYPE": "U", "NORAD_CAT_ID": 43108, "ELEMENT_SET_NO": 999, "REV_AT_EPOCH": 5382, "BSTAR": 0, "MEAN_MOTION_DOT": -7.7e-07, "MEAN_MOTION_DDOT": 0}, "tle": {"line1": "1 43108U 18003B   25343.21416373 -.00000077  00000+0  00000+0 0  9995", "line2": "2 43108  54.4927 308.9205 0004822 273.4107  86.5234  1.86230654 53827"}}, "geometry": {"type": "Point", "coordinates": [10.243235395822104, 50.89191161986553]}}, {"type": "Feature", "properties": {"norad_id": 43207, "name": "BEIDOU-3 M4 (C22)", "group": "beidou", "lat": 35.2435913486771, "lon": -138.4705404383422, "alt_km": 21530.368433783602, "timestamp": "2025-12-09T20:37:09.552196+00:00", "meta": {"OBJECT_NAME": "BEIDOU-3 M4 (C22)", "OBJECT_ID": "2018-018A", "EPOCH": "2025-12-06T10:25:28.940736", "MEAN_MOTION": 1.86230708, "ECCENTRICITY": 0.00041784, "INCLINATION": 56.4806, "RA_OF_ASC_NODE": 69.5126, "ARG_OF_PERICENTER": 11.9666, "MEAN_ANOMALY": 348.0575, "EPHEMERIS_TYPE": 0, "CLASSIFICATION_TYPE": "U", "NORAD_CAT_ID": 43207, "ELEMENT_SET_NO": 999, "REV_AT_EPOCH": 5315, "BSTAR": 0, "MEAN_MOTION_DOT": -4.5e-07, "MEAN_MOTION_DDOT": 0}, "tle": {"line1": "1 43207U 18018A   25340.43436274 -.00000045  00000+0  00000+0 0  9999", "line2": "2 43207  56.4806  69.5126 0004178  11.9666 348.0575  1.86230708 53156"}}, "geometry": {"type": "Point", "coordinates": [-138.4705404383422, 35.2435913486771]}}, {"type": "Feature", "properties": {"norad_id": 43208, "name": "BEIDOU-3 M3 (C21)", "group": "beidou", "lat": 56.47115389931172, "lon": 162.22444064503605, "alt_km": 21534.109996733026, "timestamp": "2025-12-09T20:37:09.552207+00:00", "meta": {"OBJECT_NAME": "BEIDOU-3 M3 (C21)", "OBJECT_ID": "2018-018B", "EPOCH": "2025-12-09T04:27:22.129920", "MEAN_MOTION": 1.86231192, "ECCENTRICITY": 0.0006468, "INCLINATION": 56.4827, "RA_OF_ASC_NODE": 69.4258, "ARG_OF_PERICENTER": 317.3873, "MEAN_ANOMALY": 42.5846, "EPHEMERIS_TYPE": 0, "CLASSIFICATION_TYPE": "U", "NORAD_CAT_ID": 43208, "ELEMENT_SET_NO": 999, "REV_AT_EPOCH": 5320, "BSTAR": 0, "MEAN_MOTION_DOT": -4.7e-07, "MEAN_MOTION_DDOT": 0}, "tle": {"line1": "1 43208U 18018B   25343.18567280 -.00000047  00000+0  00000+0 0  9999", "line2": "2 43208  56.4827  69.4258 0006468 317.3873  42.5846  1.86231192 53203"}}, "geometry": {"type": "Point", "coordinates": [162.22444064503605, 56.47115389931172]}}, {"type": "Feature", "properties": {"norad_id": 43245, "name": "BEIDOU-3 M9 (C29)", "group": "beidou", "lat": -40.72412415618055, "lon": -91.54770451292302, "alt_km": 21529.213925701457, "timestamp": "2025-12-09T20:37:09.552218+00:00", "meta": {"OBJECT_NAME": "BEIDOU-3 M9 (C29)", "OBJECT_ID": "2018-029A", "EPOCH": "2025-12-09T09:38:36.109248", "MEAN_MOTION": 1.86227964, "ECCENTRICITY": 0.00016746, "INCLINATION": 54.3687, "RA_OF_ASC_NODE": 306.5834, "ARG_OF_PERICENTER": 274.0787, "MEAN_ANOMALY": 85.8921, "EPHEMERIS_TYPE": 0, "CLASSIFICATION_TYPE": "U", "NORAD_CAT_ID": 43245, "ELEMENT_SET_NO": 999, "REV_AT_EPOCH": 5236, "BSTAR": 0, "MEAN_MOTION_DOT": -7.6e-07, "MEAN_MOTION_DDOT": 0}, "tle": {"line1": "1 43245U 18029A   25343.40180682 -.00000076  00000+0  00000+0 0  9996", "line2": "2 43245  54.3687 306.5834 0001674 274.0787  85.8921  1.86227964 52369"}}, "geometry": {"type": "Point", "coordinates": [-91.54770451292302, -40.72412415618055]}}, {"type": "Feature", "properties": {"norad_id": 43246, "name": "BEIDOU-3 M10 (C30)", "group": "beidou", "lat": -8.110234459984131, "lon": -59.28570169505566, "alt_km": 21518.629185723257, "timestamp": "2025-12-09T20:37:09.552237+00:00", "meta": {"OBJECT_NAME": "BEIDOU-3 M10 (C30)", "OBJECT_ID": "2018-029B", "EPOCH": "2025-12-09T08:05:23.415648", "MEAN_MOTION": 1.86228788, "ECCENTRICITY": 0.00039729, "INCLINATION": 54.3665, "RA_OF_ASC_NODE": 306.6138, "ARG_OF_PERICENTER": 359.0444, "MEAN_ANOMALY": 0.9446, "EPHEMERIS_TYPE": 0, "CLASSIFICATION_TYPE": "U", "NORAD_CAT_ID": 43246, "ELEMENT_SET_NO": 999, "REV_AT_EPOCH": 5234, "BSTAR": 0, "MEAN_MOTION_DOT": -7.6e-07, "MEAN_MOTION_DDOT": 0}, "tle": {"line1": "1 43246U 18029B   25343.33707657 -.00000076  00000+0  00000+0 0  9996", "line2": "2 43246  54.3665 306.6138 0003972 359.0444   0.9446  1.86228788 52344"}}, "geometry": {"type": "Point", "coordinates": [-59.28570169505566, -8.110234459984131]}}, {"type": "Feature", "properties": {"norad_id": 43539, "name": "BEIDOU-2 IGSO-7 (C16)", "group": "beidou", "lat": -19.842175904403536, "lon": 150.1209860842704, "alt_km": 35859.403264322325, "timestamp": "2025-12-09T20:37:09.552249+00:00", "meta": {"OBJECT_NAME": "BEIDOU-2 IGSO-7 (C16)", "OBJECT_ID": "2018-057A", "EPOCH": "2025-12-09T10:39:54.393984", "MEAN_MOTION": 1.00258071, "ECCENTRICITY": 0.0092596, "INCLINATION": 55.1734, "RA_OF_ASC_NODE": 164.6998, "ARG_OF_PERICENTER": 235.2278, "MEAN_ANOMALY": 309.5847, "EPHEMERIS_TYPE": 0, "CLASSIFICATION_TYPE": "U", "NORAD_CAT_ID": 43539, "ELEMENT_SET_NO": 999, "REV_AT_EPOCH": 2722, "BSTAR": 0, "MEAN_MOTION_DOT": -6.9e-07, "MEAN_MOTION_DDOT": 0}, "tle": {"line1": "1 43539U 18057A   25343.44437956 -.00000069  00000+0  00000+0 0  9998", "line2": "2 43539  55.1734 164.6998 0092596 235.2278 309.5847  1.00258071 27227"}}, "geometry": {"type": "Point", "coordinates": [150.1209860842704, -19.842175904403536]}}, {"type": "Feature", "properties": {"norad_id": 43581, "name": "BEIDOU-3 M5 (C23)", "group": "beidou", "lat": -15.607383834512943, "lon": 20.428988448749372, "alt_km": 21535.80145395295, "timestamp": "2025-12-09T20:37:09.552260+00:00", "meta": {"OBJECT_NAME": "BEIDOU-3 M5 (C23)", "OBJECT_ID": "2018-062A", "EPOCH": "2025-12-07T09:56:06.099936", "MEAN_MOTION": 1.86228656, "ECCENTRICITY": 0.00021227, "INCLINATION": 54.0892, "RA_OF_ASC_NODE": 188.8244, "ARG_OF_PERICENTER": 353.0314, "MEAN_ANOMALY": 7.0363, "EPHEMERIS_TYPE": 0, "CLASSIFICATION_TYPE": "U", "NORAD_CAT_ID": 43581, "ELEMENT_SET_NO": 999, "REV_AT_EPOCH": 5006, "BSTAR": 0, "MEAN_MOTION_DOT": 5.9e-07, "MEAN_MOTION_DDOT": 0}, "tle": {"line1": "1 43581U 18062A   25341.41395949  .00000059  00000+0  00000+0 0  9999", "line2": "2 43581  54.0892 188.8244 0002122 353.0314   7.0363  1.86228656 50066"}}, "geometry": {"type": "Point", "coordinates": [20.428988448749372, -15.607383834512943]}}, {"type": "Feature", "properties": {"norad_id": 43582, "name": "BEIDOU-3 M6 (C24)", "group": "beidou", "lat": -49.031770174628264, "lon": 132.14885334598887, "alt_km": 21542.861673487605, "timestamp": "2025-12-09T20:37:09.552271+00:00", "meta": {"OBJECT_NAME": "BEIDOU-3 M6 (C24)", "OBJECT_ID": "2018-062B", "EPOCH": "2025-12-07T19:32:10.570272", "MEAN_MOTION": 1.86229692, "ECCENTRICITY": 0.00077761, "INCLINATION": 54.0886, "RA_OF_ASC_NODE": 188.7999, "ARG_OF_PERICENTER": 46.2812, "MEAN_ANOMALY": 313.8511, "EPHEMERIS_TYPE": 0, "CLASSIFICATION_TYPE": "U", "NORAD_CAT_ID": 43582, "ELEMENT_SET_NO": 999, "REV_AT_EPOCH": 5007, "BSTAR": 0, "MEAN_MOTION_DOT": 5.5e-07, "MEAN_MOTION_DDOT": 0}, "tle": {"line1": "1 43582U 18062B   25341.81401123  .00000055  00000+0  00000+0 0  9992", "line2": "2 43582  54.0886 188.7999 0007776  46.2812 313.8511  1.86229692 50075"}}, "geometry": {"type": "Point", "coordinates": [132.14885334598887, -49.031770174628264]}}, {"type": "Feature", "properties": {"norad_id": 43602, "name": "BEIDOU-3 M12 (C26)", "group": "beidou", "lat": -21.715885482189954, "lon": 170.74824428274525, "alt_km": 21521.697853119986, "timestamp": "2025-12-09T20:37:09.552282+00:00", "meta": {"OBJECT_NAME": "BEIDOU-3 M12 (C26)", "OBJECT_ID": "2018-067A", "EPOCH": "2025-12-07T18:02:34.116000", "MEAN_MOTION": 1.86227677, "ECCENTRICITY": 0.00091651, "INCLINATION": 54.1832, "RA_OF_ASC_NODE": 187.5325, "ARG_OF_PERICENTER": 40.8071, "MEAN_ANOMALY": 319.3279, "EPHEMERIS_TYPE": 0, "CLASSIFICATION_TYPE": "U", "NORAD_CAT_ID": 43602, "ELEMENT_SET_NO": 999, "REV_AT_EPOCH": 4955, "BSTAR": 0, "MEAN_MOTION_DOT": 5.6e-07, "MEAN_MOTION_DDOT": 0}, "tle": {"line1": "1 43602U 18067A   25341.75178375  .00000056  00000+0  00000+0 0  9994", "line2": "2 43602  54.1832 187.5325 0009165  40.8071 319.3279  1.86227677 49555"}}, "geometry": {"type": "Point", "coordinates": [170.74824428274525, -21.715885482189954]}}, {"type": "Feature", "properties": {"norad_id": 43603, "name": "BEIDOU-3 M11 (C25)", "group": "beidou", "lat": -46.10269418924036, "lon": 56.08612807865673, "alt_km": 21547.687511973876, "timestamp": "2025-12-09T20:37:09.552293+00:00", "meta": {"OBJECT_NAME": "BEIDOU-3 M11 (C25)", "OBJECT_ID": "2018-067B", "EPOCH": "2025-12-07T08:23:01.607424", "MEAN_MOTION": 1.86227152, "ECCENTRICITY": 0.0005581, "INCLINATION": 54.1802, "RA_OF_ASC_NODE": 187.5102, "ARG_OF_PERICENTER": 36.6822, "MEAN_ANOMALY": 323.425, "EPHEMERIS_TYPE": 0, "CLASSIFICATION_TYPE": "U", "NORAD_CAT_ID": 43603, "ELEMENT_SET_NO": 999, "REV_AT_EPOCH": 4957, "BSTAR": 0, "MEAN_MOTION_DOT": 6e-07, "MEAN_MOTION_DDOT": 0}, "tle": {"line1": "1 43603U 18067B   25341.34932416  .00000060  00000+0  00000+0 0  9999", "line2": "2 43603  54.1802 187.5102 0005581  36.6822 323.4250  1.86227152 49576"}}, "geometry": {"type": "Point", "coordinates": [56.08612807865673, -46.10269418924036]}}]}